FLOCK 4BE-27            
1 60513U 24149AX  26068.75339182  .00011439  00000+0  36576-3 0  9992
2 60513  97.3862 150.6783 0002732 305.8980  54.2008 15.32593322 86906
STARLINK-33681          
1 63438U 25069F   26068.48871624  .00022513  00000+0  77010-3 0  9998
2 63438  53.1578 143.4356 0001240  73.8719 286.2418 15.30193084 53376
